OBJECT_NAME,OBJECT_ID,EPOCH,MEAN_MOTION,ECCENTRICITY,INCLINATION,RA_OF_ASC_NODE,ARG_OF_PERICENTER,MEAN_ANOMALY,EPHEMERIS_TYPE,CLASSIFICATION_TYPE,NORAD_CAT_ID,ELEMENT_SET_NO,REV_AT_EPOCH,BSTAR,MEAN_MOTION_DOT,MEAN_MOTION_DDOT
LEMUR-2-FINNIAN,2025-276DX,2026-07-16T18:07:55.044480,15.00627545,.00072159,97.5358,267.8266,354.7845,5.3303,0,U,66782,999,2443,.11831615E-3,.1438E-4,0
LEMUR-2-STARLIGHT,2025-276DY,2026-07-17T00:06:16.653024,14.99368921,.00147533,97.5234,267.6244,41.8788,318.3562,0,U,66783,999,3466,.31670005E-3,.3825E-4,0
LEMUR-2-TARTIFLETTE,2025-276DZ,2026-07-16T17:39:35.767296,14.99350642,.00139202,97.5233,267.3730,51.1069,309.1394,0,U,66784,999,3462,.28560617E-3,.3442E-4,0
LEMUR-2-VUKASIN,2025-276EA,2026-07-17T04:07:18.210720,15.00556240,.00027307,97.5216,268.1562,48.5948,311.5510,0,U,66785,999,3464,.18759991E-3,.231E-4,0
LEMUR-2-HOTSPUR-TOM,2025-276EB,2026-07-17T03:08:19.733280,14.99252822,.00137202,97.5214,267.7279,41.5297,318.6966,0,U,66786,999,3461,.24574168E-3,.2945E-4,0
LEMUR-2-MYRA,2025-276EC,2026-07-17T00:05:05.406720,15.00601403,.00186724,97.5220,267.9128,48.8003,311.4828,0,U,66787,999,3468,.26550276E-3,.3308E-4,0
LEMUR-2 FIKRETDENGIZ,2026-004A,2026-07-16T23:35:09.729600,14.88523570,.00100761,97.8028,196.0882,50.7070,309.5038,0,U,67363,999,2771,.18209536E-3,.1639E-4,0
TWILIGHT-1 OBJECT B,2026-004B,2026-07-17T05:20:26.634336,14.87797097,.00095958,97.8076,196.3240,39.9869,320.2053,0,U,67364,999,2775,.99477984E-4,.854E-5,0
LEMUR-2-MARIO-SOUSA,2026-004C,2026-07-17T05:32:56.575968,14.88736944,.00096856,97.8001,196.3279,51.6541,308.5545,0,U,67365,999,2776,.21946679E-3,.1998E-4,0
LEMUR-2-SONNENBLUME,2026-004E,2026-07-16T23:10:22.775232,14.88458139,.00092985,97.8001,196.0381,53.2445,306.9625,0,U,67367,999,2772,.14780586E-3,.1318E-4,0
LEMUR-2-WOBLER,2026-004F,2026-07-17T05:21:41.175936,14.88706069,.00093612,97.8052,196.4452,44.1369,316.0594,0,U,67368,999,2776,.20858033E-3,.1894E-4,0
LEMUR-2-GRAM-E-SUE,2026-004H,2026-07-16T22:43:23.486304,14.88593718,.00084893,97.7987,196.0361,56.2455,303.9570,0,U,67370,999,2772,.13514085E-3,.1204E-4,0
LEMUR-2-KATIE,2026-004AA,2026-07-16T23:15:17.492544,14.90260082,.00033398,97.8044,196.6155,29.9962,330.1447,0,U,67387,999,2774,.21596188E-3,.2041E-4,0
LEMUR-2-HCS-BAZUS,2026-004AB,2026-07-17T05:39:39.137760,14.90269255,.00028432,97.8040,196.8571,28.4863,331.6510,0,U,67388,999,2778,.16290249E-3,.1526E-4,0
